CCSDS_OMM_VERS,COMMENT,CREATION_DATE,ORIGINATOR,OBJECT_NAME,OBJECT_ID,CENTER_NAME,REF_FRAME,TIME_SYSTEM,MEAN_ELEMENT_THEORY,EPOCH,MEAN_MOTION,ECCENTRICITY,INCLINATION,RA_OF_ASC_NODE,ARG_OF_PERICENTER,MEAN_ANOMALY,EPHEMERIS_TYPE,CLASSIFICATION_TYPE,NORAD_CAT_ID,ELEMENT_SET_NO,REV_AT_EPOCH,BSTAR,MEAN_MOTION_DOT,MEAN_MOTION_DDOT,SEMIMAJOR_AXIS,PERIOD,APOAPSIS,PERIAPSIS,OBJECT_TYPE,RCS_SIZE,COUNTRY_CODE,LAUNCH_DATE,SITE,DECAY_DATE,FILE,GP_ID,TLE_LINE0,TLE_LINE1,TLE_LINE2,norad_id
3.0,GENERATED VIA SPACE-TRACK.ORG API,2026-05-19T02:42:52,18 SPCS,NAVSTAR 83 (USA 440),2024-242A,EARTH,TEME,UTC,SGP4,2026-05-18 16:13:40.244736+00:00,2.00570743,0.00172226,54.8623,335.3773,3.5093,176.2743,0,U,62339,999,1066,0.00000000000000,-0.00000075,0.0000000000000,26559.718,717.951,20227.325,20135.840,PAYLOAD,LARGE,US,2024-12-17,AFETR,,5203002,323772271,0 NAVSTAR 83 (USA 440),1 62339U 24242A   26138.67616024 -.00000075  00000-0  00000-0 0  9992,2 62339  54.8623 335.3773 0017223   3.5093 176.2743  2.00570743 10660,62339
3.0,GENERATED VIA SPACE-TRACK.ORG API,2026-05-19T15:16:35,18 SPCS,NAVSTAR 83 (USA 440),2024-242A,EARTH,TEME,UTC,SGP4,2026-05-19 04:02:38.755968+00:00,2.00570758,0.00172020,54.8621,335.3572,3.5576,171.7354,0,U,62339,999,1067,0.00000000000000,-0.00000077,0.0000000000000,26559.716,717.951,20227.269,20135.893,PAYLOAD,LARGE,US,2024-12-17,AFETR,,5204540,323847980,0 NAVSTAR 83 (USA 440),1 62339U 24242A   26139.16850412 -.00000077  00000-0  00000+0 0  9999,2 62339  54.8621 335.3572 0017202   3.5576 171.7354  2.00570758 10673,62339
3.0,GENERATED VIA SPACE-TRACK.ORG API,2026-05-20T02:32:39,18 SPCS,NAVSTAR 83 (USA 440),2024-242A,EARTH,TEME,UTC,SGP4,2026-05-19 16:11:02.790240+00:00,2.00570769,0.00172774,54.8610,335.3368,3.4958,177.0470,0,U,62339,999,1068,0.00000000000000,-0.00000078,0.0000000000000,26559.715,717.951,20227.469,20135.692,PAYLOAD,LARGE,US,2024-12-17,AFETR,,5205549,323898272,0 NAVSTAR 83 (USA 440),1 62339U 24242A   26139.67433785 -.00000078  00000-0  00000-0 0  9997,2 62339  54.8610 335.3368 0017277   3.4958 177.0470  2.00570769 10680,62339
3.0,GENERATED VIA SPACE-TRACK.ORG API,2026-05-21T03:02:41,18 SPCS,NAVSTAR 83 (USA 440),2024-242A,EARTH,TEME,UTC,SGP4,2026-05-20 16:08:18.554208+00:00,2.00570826,0.00173014,54.8606,335.2961,3.5784,177.6674,0,U,62339,999,1070,0.00000000000000,-0.00000081,0.0000000000000,26559.710,717.951,20227.527,20135.623,PAYLOAD,LARGE,US,2024-12-17,AFETR,,5207306,324038933,0 NAVSTAR 83 (USA 440),1 62339U 24242A   26140.67243697 -.00000081  00000-0  00000-0 0  9994,2 62339  54.8606 335.2961 0017301   3.5784 177.6674  2.00570826 10708,62339
3.0,GENERATED VIA SPACE-TRACK.ORG API,2026-05-21T21:16:58,18 SPCS,NAVSTAR 83 (USA 440),2024-242A,EARTH,TEME,UTC,SGP4,2026-05-21 16:05:43.894752+00:00,2.00570900,0.00173340,54.8604,335.2554,3.6569,178.3722,0,U,62339,999,1072,0.00000000000000,-0.00000083,0.0000000000000,26559.704,717.951,20227.607,20135.530,PAYLOAD,LARGE,US,2024-12-17,AFETR,,5208146,324188782,0 NAVSTAR 83 (USA 440),1 62339U 24242A   26141.67064693 -.00000083  00000-0  00000+0 0  9993,2 62339  54.8604 335.2554 0017334   3.6569 178.3722  2.00570900 10729,62339
3.0,GENERATED VIA SPACE-TRACK.ORG API,2026-05-22T03:00:41,18 SPCS,NAVSTAR 83 (USA 440),2024-242A,EARTH,TEME,UTC,SGP4,2026-05-21 16:05:43.895616+00:00,2.00570900,0.00173337,54.8604,335.2555,3.6569,178.3722,0,U,62339,999,1072,0.00000000000000,-0.00000083,0.0000000000000,26559.704,717.951,20227.606,20135.531,PAYLOAD,LARGE,US,2024-12-17,AFETR,,5208707,324269239,0 NAVSTAR 83 (USA 440),1 62339U 24242A   26141.67064694 -.00000083  00000-0  00000-0 0  9995,2 62339  54.8604 335.2555 0017334   3.6569 178.3722  2.00570900 10720,62339
3.0,GENERATED VIA SPACE-TRACK.ORG API,2026-05-24T00:16:29,18 SPCS,NAVSTAR 83 (USA 440),2024-242A,EARTH,TEME,UTC,SGP4,2026-05-23 16:00:21.082752+00:00,2.00571082,0.00173740,54.8596,335.1744,3.8345,179.6490,0,U,62339,999,1076,0.00000000000000,-0.00000087,0.0000000000000,26559.688,717.950,20227.697,20135.408,PAYLOAD,LARGE,US,2024-12-17,AFETR,,5211500,324638607,0 NAVSTAR 83 (USA 440),1 62339U 24242A   26143.66691068 -.00000087  00000-0  00000+0 0  9990,2 62339  54.8596 335.1744 0017374   3.8345 179.6490  2.00571082 10769,62339
3.0,GENERATED VIA SPACE-TRACK.ORG API,2026-05-25T04:06:45,18 SPCS,NAVSTAR 83 (USA 440),2024-242A,EARTH,TEME,UTC,SGP4,2026-05-23 16:00:21.083616+00:00,2.00571082,0.00173736,54.8596,335.1744,3.8345,179.6490,0,U,62339,999,1076,0.00000000000000,-0.00000087,0.0000000000000,26559.688,717.950,20227.696,20135.409,PAYLOAD,LARGE,US,2024-12-17,AFETR,,5212715,324772184,0 NAVSTAR 83 (USA 440),1 62339U 24242A   26143.66691069 -.00000087  00000-0  00000-0 0  9992,2 62339  54.8596 335.1744 0017374   3.8345 179.6490  2.00571082 10769,62339
3.0,GENERATED VIA SPACE-TRACK.ORG API,2026-05-29T17:54:44,18 SPCS,NAVSTAR 83 (USA 440),2024-242A,EARTH,TEME,UTC,SGP4,2026-05-29 09:32:41.519328+00:00,2.00571524,0.00173458,54.8580,334.9425,4.2667,357.2903,0,U,62339,999,1088,0.00000000000000,-0.00000096,0.0000000000000,26559.649,717.948,20227.584,20135.444,PAYLOAD,LARGE,US,2024-12-17,AFETR,,5221432,325882608,0 NAVSTAR 83 (USA 440),1 62339U 24242A   26149.39770277 -.00000096  00000-0  00000-0 0  9997,2 62339  54.8580 334.9425 0017346   4.2667 357.2903  2.00571524 10883,62339
3.0,GENERATED VIA SPACE-TRACK.ORG API,2026-05-30T07:49:03,18 SPCS,NAVSTAR 83 (USA 440),2024-242A,EARTH,TEME,UTC,SGP4,2026-05-29 21:29:51.258624+00:00,2.00571550,0.00173524,54.8579,334.9224,4.2820,356.8911,0,U,62339,999,1089,0.00000000000000,-0.00000095,0.0000000000000,26559.646,717.948,20227.599,20135.424,PAYLOAD,LARGE,US,2024-12-17,AFETR,,5222214,325987443,0 NAVSTAR 83 (USA 440),1 62339U 24242A   26149.89573216 -.00000095  00000-0  00000-0 0  9995,2 62339  54.8579 334.9224 0017352   4.2820 356.8911  2.00571550 10890,62339
3.0,GENERATED VIA SPACE-TRACK.ORG API,2026-05-30T21:02:43,18 SPCS,NAVSTAR 83 (USA 440),2024-242A,EARTH,TEME,UTC,SGP4,2026-05-30 03:28:40.362240+00:00,2.00571543,0.00173641,54.8570,334.9124,4.2760,176.8231,0,U,62339,999,1089,0.00000000000000,-0.00000095,0.0000000000000,26559.647,717.948,20227.630,20135.393,PAYLOAD,LARGE,US,2024-12-17,AFETR,,5223167,326107227,0 NAVSTAR 83 (USA 440),1 62339U 24242A   26150.14491160 -.00000095  00000-0  00000-0 0  9992,2 62339  54.8570 334.9124 0017364   4.2760 176.8231  2.00571543 10893,62339
3.0,GENERATED VIA SPACE-TRACK.ORG API,2026-05-31T06:56:47,18 SPCS,NAVSTAR 83 (USA 440),2024-242A,EARTH,TEME,UTC,SGP4,2026-05-31 03:48:43.491744+00:00,2.00571579,0.00173740,54.8567,334.8715,4.2937,188.9382,0,U,62339,999,1091,0.00000000000000,-0.00000093,0.0000000000000,26559.644,717.948,20227.653,20135.364,PAYLOAD,LARGE,US,2024-12-17,AFETR,,5224581,326287192,0 NAVSTAR 83 (USA 440),1 62339U 24242A   26151.15883671 -.00000093  00000-0  00000+0 0  9993,2 62339  54.8567 334.8715 0017374   4.2937 188.9382  2.00571579 10914,62339
3.0,GENERATED VIA SPACE-TRACK.ORG API,2026-05-31T16:26:43,18 SPCS,NAVSTAR 83 (USA 440),2024-242A,EARTH,TEME,UTC,SGP4,2026-05-31 09:37:47.377056+00:00,2.00571587,0.00173800,54.8565,334.8617,4.3480,3.9198,0,U,62339,999,1092,0.00000000000000,-0.00000092,0.0000000000000,26559.643,717.948,20227.669,20135.347,PAYLOAD,LARGE,US,2024-12-17,AFETR,,5225393,326361288,0 NAVSTAR 83 (USA 440),1 62339U 24242A   26151.40124279 -.00000092  00000-0  00000+0 0  9992,2 62339  54.8565 334.8617 0017380   4.3480   3.9198  2.00571587 10925,62339
3.0,GENERATED VIA SPACE-TRACK.ORG API,2026-06-01T10:22:25,18 SPCS,NAVSTAR 83 (USA 440),2024-242A,EARTH,TEME,UTC,SGP4,2026-05-31 21:12:24.087168+00:00,2.00571600,0.00173813,54.8562,334.8422,4.3633,352.2127,0,U,62339,999,1092,0.00000000000000,-0.00000091,0.0000000000000,26559.642,717.948,20227.671,20135.343,PAYLOAD,LARGE,US,2024-12-17,AFETR,,5227124,326551825,0 NAVSTAR 83 (USA 440),1 62339U 24242A   26151.88361212 -.00000091  00000-0  00000-0 0  9994,2 62339  54.8562 334.8422 0017381   4.3633 352.2127  2.00571600 10925,62339
3.0,GENERATED VIA SPACE-TRACK.ORG API,2026-06-01T18:19:01,18 SPCS,NAVSTAR 83 (USA 440),2024-242A,EARTH,TEME,UTC,SGP4,2026-06-01 09:28:55.984224+00:00,2.00571608,0.00173835,54.8561,334.8215,4.3778,1.5269,0,U,62339,999,1094,0.00000000000000,-0.00000089,0.0000000000000,26559.641,717.948,20227.676,20135.336,PAYLOAD,LARGE,US,2024-12-17,AFETR,,5227192,326586766,0 NAVSTAR 83 (USA 440),1 62339U 24242A   26152.39509241 -.00000089  00000-0  00000-0 0  9994,2 62339  54.8561 334.8215 0017384   4.3778   1.5269  2.00571608 10948,62339
3.0,GENERATED VIA SPACE-TRACK.ORG API,2026-06-02T07:37:26,18 SPCS,NAVSTAR 83 (USA 440),2024-242A,EARTH,TEME,UTC,SGP4,2026-06-01 21:09:45.595872+00:00,2.00571617,0.00173847,54.8559,334.8018,4.3809,352.9487,0,U,62339,999,1094,0.00000000000000,-0.00000086,0.0000000000000,26559.640,717.948,20227.678,20135.332,PAYLOAD,LARGE,US,2024-12-17,AFETR,,5227263,326620087,0 NAVSTAR 83 (USA 440),1 62339U 24242A   26152.88177773 -.00000086  00000-0  00000-0 0  9996,2 62339  54.8559 334.8018 0017385   4.3809 352.9487  2.00571617 10947,62339
3.0,GENERATED VIA SPACE-TRACK.ORG API,2026-06-02T10:48:41,18 SPCS,NAVSTAR 83 (USA 440),2024-242A,EARTH,TEME,UTC,SGP4,2026-06-02 03:11:38.683968+00:00,2.00571617,0.00173840,54.8559,334.7917,4.3718,174.4224,0,U,62339,999,1095,0.00000000000000,-0.00000085,0.0000000000000,26559.640,717.948,20227.677,20135.334,PAYLOAD,LARGE,US,2024-12-17,AFETR,,5227273,326654089,0 NAVSTAR 83 (USA 440),1 62339U 24242A   26153.13308662 -.00000085  00000-0  00000-0 0  9997,2 62339  54.8559 334.7917 0017384   4.3718 174.4224  2.00571617 10959,62339
3.0,GENERATED VIA SPACE-TRACK.ORG API,2026-06-03T03:08:42,18 SPCS,NAVSTAR 83 (USA 440),2024-242A,EARTH,TEME,UTC,SGP4,2026-06-02 21:07:03.043776+00:00,2.00571616,0.00173841,54.8558,334.7615,4.3770,353.6720,0,U,62339,999,1096,0.00000000000000,-0.00000082,0.0000000000000,26559.641,717.948,20227.677,20135.334,PAYLOAD,LARGE,US,2024-12-17,AFETR,,5227853,326772114,0 NAVSTAR 83 (USA 440),1 62339U 24242A   26153.87989634 -.00000082  00000-0  00000-0 0  9999,2 62339  54.8558 334.7615 0017384   4.3770 353.6720  2.00571616 10963,62339
